{
  "type": "FeatureCollection",
  "features": [
    {
      "type": "Feature",
      "properties": {
        "norad_id": 44793,
        "name": "BEIDOU-3 M22 (C44)",
        "group": "gnss",
        "lat": -41.238041879918434,
        "lon": 165.4155792333507,
        "alt_km": 21547.31487152279,
        "timestamp": "2025-12-21T16:47:54.981691+00:00",
        "meta_object_name": "BEIDOU-3 M22 (C44)",
        "meta_object_id": "2019-078A",
        "meta_epoch": "2025-12-21T08:24:25.549344",
        "meta_mean_motion": 1.86232186,
        "meta_eccentricity": 0.0006049,
        "meta_inclination": 54.1004,
        "meta_ra_of_asc_node": 306.084,
        "meta_arg_of_pericenter": 24.1688,
        "meta_mean_anomaly": 335.8571,
        "meta_ephemeris_type": 0,
        "meta_classification_type": "U",
        "meta_norad_cat_id": 44793,
        "meta_element_set_no": 999,
        "meta_rev_at_epoch": 4133,
        "meta_bstar": 0,
        "meta_mean_motion_dot": -6.2e-07,
        "meta_mean_motion_ddot": 0,
        "tle_line1": "1 44793U 19078A   25355.35029571 -.00000062  00000+0  00000+0 0  9991",
        "tle_line2": "2 44793  54.1004 306.0840 0006049  24.1688 335.8571  1.86232186 41332"
      },
      "geometry": {
        "type": "Point",
        "coordinates": [
          165.4155792333507,
          -41.238041879918434
        ]
      }
    },
    {
      "type": "Feature",
      "properties": {
        "norad_id": 44794,
        "name": "BEIDOU-3 M21 (C43)",
        "group": "gnss",
        "lat": 29.859203719925286,
        "lon": 101.44470283157685,
        "alt_km": 21532.111512879284,
        "timestamp": "2025-12-21T16:47:54.981708+00:00",
        "meta_object_name": "BEIDOU-3 M21 (C43)",
        "meta_object_id": "2019-078B",
        "meta_epoch": "2025-12-16T15:43:55.727904",
        "meta_mean_motion": 1.86227668,
        "meta_eccentricity": 0.00041169,
        "meta_inclination": 54.078,
        "meta_ra_of_asc_node": 306.2132,
        "meta_arg_of_pericenter": 11.942,
        "meta_mean_anomaly": 348.0544,
        "meta_ephemeris_type": 0,
        "meta_classification_type": "U",
        "meta_norad_cat_id": 44794,
        "meta_element_set_no": 999,
        "meta_rev_at_epoch": 4125,
        "meta_bstar": 0,
        "meta_mean_motion_dot": -9.5e-07,
        "meta_mean_motion_ddot": 0,
        "tle_line1": "1 44794U 19078B   25350.65550611 -.00000095  00000+0  00000+0 0  9990",
        "tle_line2": "2 44794  54.0780 306.2132 0004116  11.9420 348.0544  1.86227668 41256"
      },
      "geometry": {
        "type": "Point",
        "coordinates": [
          101.44470283157685,
          29.859203719925286
        ]
      }
    },
    {
      "type": "Feature",
      "properties": {
        "norad_id": 44850,
        "name": "COSMOS 2544 (759)",
        "group": "gnss",
        "lat": 35.27277276010117,
        "lon": 98.48720912141457,
        "alt_km": 19156.954440483947,
        "timestamp": "2025-12-21T16:47:54.981725+00:00",
        "meta_object_name": "COSMOS 2544 (759)",
        "meta_object_id": "2019-088A",
        "meta_epoch": "2025-12-21T04:18:06.689376",
        "meta_mean_motion": 2.13102125,
        "meta_eccentricity": 0.00141884,
        "meta_inclination": 65.4644,
        "meta_ra_of_asc_node": 79.6762,
        "meta_arg_of_pericenter": 250.1842,
        "meta_mean_anomaly": 109.6995,
        "meta_ephemeris_type": 0,
        "meta_classification_type": "U",
        "meta_norad_cat_id": 44850,
        "meta_element_set_no": 999,
        "meta_rev_at_epoch": 4692,
        "meta_bstar": 0,
        "meta_mean_motion_dot": -1e-07,
        "meta_mean_motion_ddot": 0,
        "tle_line1": "1 44850U 19088A   25355.17924409 -.00000010  00000+0  00000+0 0  9993",
        "tle_line2": "2 44850  65.4644  79.6762 0014188 250.1842 109.6995  2.13102125 46920"
      },
      "geometry": {
        "type": "Point",
        "coordinates": [
          98.48720912141457,
          35.27277276010117
        ]
      }
    },
    {
      "type": "Feature",
      "properties": {
        "norad_id": 44864,
        "name": "BEIDOU-3 M19 (C41)",
        "group": "gnss",
        "lat": -18.22520382418082,
        "lon": 56.05754786714493,
        "alt_km": 21499.80722609797,
        "timestamp": "2025-12-21T16:47:54.981750+00:00",
        "meta_object_name": "BEIDOU-3 M19 (C41)",
        "meta_object_id": "2019-090A",
        "meta_epoch": "2025-12-21T08:18:55.694880",
        "meta_mean_motion": 1.86231675,
        "meta_eccentricity": 0.0018311,
        "meta_inclination": 56.3999,
        "meta_ra_of_asc_node": 68.6763,
        "meta_arg_of_pericenter": 285.0239,
        "meta_mean_anomaly": 175.8266,
        "meta_ephemeris_type": 0,
        "meta_classification_type": "U",
        "meta_norad_cat_id": 44864,
        "meta_element_set_no": 999,
        "meta_rev_at_epoch": 4092,
        "meta_bstar": 0,
        "meta_mean_motion_dot": -3.6e-07,
        "meta_mean_motion_ddot": 0,
        "tle_line1": "1 44864U 19090A   25355.34647795 -.00000036  00000+0  00000+0 0  9998",
        "tle_line2": "2 44864  56.3999  68.6763 0018311 285.0239 175.8266  1.86231675 40927"
      },
      "geometry": {
        "type": "Point",
        "coordinates": [
          56.05754786714493,
          -18.22520382418082
        ]
      }
    },
    {
      "type": "Feature",
      "properties": {
        "norad_id": 44865,
        "name": "BEIDOU-3 M20 (C42)",
        "group": "gnss",
        "lat": 50.35262026193491,
        "lon": 121.94812577742152,
        "alt_km": 21549.971624288424,
        "timestamp": "2025-12-21T16:47:54.981767+00:00",
        "meta_object_name": "BEIDOU-3 M20 (C42)",
        "meta_object_id": "2019-090B",
        "meta_epoch": "2025-12-21T01:49:05.066976",
        "meta_mean_motion": 1.86231552,
        "meta_eccentricity": 0.00154797,
        "meta_inclination": 56.4014,
        "meta_ra_of_asc_node": 68.7196,
        "meta_arg_of_pericenter": 297.2086,
        "meta_mean_anomaly": 71.7471,
        "meta_ephemeris_type": 0,
        "meta_classification_type": "U",
        "meta_norad_cat_id": 44865,
        "meta_element_set_no": 999,
        "meta_rev_at_epoch": 4090,
        "meta_bstar": 0,
        "meta_mean_motion_dot": -3.8e-07,
        "meta_mean_motion_ddot": 0,
        "tle_line1": "1 44865U 19090B   25355.07575309 -.00000038  00000+0  00000+0 0  9992",
        "tle_line2": "2 44865  56.4014  68.7196 0015479 297.2086  71.7471  1.86231552 40909"
      },
      "geometry": {
        "type": "Point",
        "coordinates": [
          121.94812577742152,
          50.35262026193491
        ]
      }
    },
    {
      "type": "Feature",
      "properties": {
        "norad_id": 45344,
        "name": "BEIDOU-3 G2 (C60)",
        "group": "gnss",
        "lat": 0.8206234960350843,
        "lon": 62.51989017501737,
        "alt_km": 35792.90722234493,
        "timestamp": "2025-12-21T16:47:54.981785+00:00",
        "meta_object_name": "BEIDOU-3 G2 (C60)",
        "meta_object_id": "2020-017A",
        "meta_epoch": "2025-12-19T13:38:45.370752",
        "meta_mean_motion": 1.00273166,
        "meta_eccentricity": 0.0002079,
        "meta_inclination": 2.5096,
        "meta_ra_of_asc_node": 44.0024,
        "meta_arg_of_pericenter": 233.0917,
        "meta_mean_anomaly": 96.0359,
        "meta_ephemeris_type": 0,
        "meta_classification_type": "U",
        "meta_norad_cat_id": 45344,
        "meta_element_set_no": 999,
        "meta_rev_at_epoch": 2145,
        "meta_bstar": 0,
        "meta_mean_motion_dot": -1.18e-06,
        "meta_mean_motion_ddot": 0,
        "tle_line1": "1 45344U 20017A   25353.56858068 -.00000118  00000+0  00000+0 0  9993",
        "tle_line2": "2 45344   2.5096  44.0024 0002079 233.0917  96.0359  1.00273166 21451"
      },
      "geometry": {
        "type": "Point",
        "coordinates": [
          62.51989017501737,
          0.8206234960350843
        ]
      }
    },
    {
      "type": "Feature",
      "properties": {
        "norad_id": 45358,
        "name": "COSMOS 2545 (760)",
        "group": "gnss",
        "lat": -57.52943481448484,
        "lon": -172.70670000445773,
        "alt_km": 19106.951722786172,
        "timestamp": "2025-12-21T16:47:54.981819+00:00",
        "meta_object_name": "COSMOS 2545 (760)",
        "meta_object_id": "2020-018A",
        "meta_epoch": "2025-12-20T21:44:12.708096",
        "meta_mean_motion": 2.13102664,
        "meta_eccentricity": 0.00114269,
        "meta_inclination": 64.4648,
        "meta_ra_of_asc_node": 318.6832,
        "meta_arg_of_pericenter": 250.0027,
        "meta_mean_anomaly": 109.8672,
        "meta_ephemeris_type": 0,
        "meta_classification_type": "U",
        "meta_norad_cat_id": 45358,
        "meta_element_set_no": 999,
        "meta_rev_at_epoch": 4486,
        "meta_bstar": 0,
        "meta_mean_motion_dot": -5e-07,
        "meta_mean_motion_ddot": 0,
        "tle_line1": "1 45358U 20018A   25354.90570264 -.00000050  00000+0  00000+0 0  9992",
        "tle_line2": "2 45358  64.4648 318.6832 0011426 250.0027 109.8672  2.13102664 44860"
      },
      "geometry": {
        "type": "Point",
        "coordinates": [
          -172.70670000445773,
          -57.52943481448484
        ]
      }
    }
  ]
}